<?xml version="1.0" encoding="utf-8" ?>
<kml xmlns="http://www.opengis.net/kml/2.2">
<Document id="root_doc">
<Schema name="route_440_dir0" id="route_440_dir0">
	<SimpleField name="route_id" type="string"></SimpleField>
	<SimpleField name="direction_id" type="string"></SimpleField>
	<SimpleField name="shape_id" type="string"></SimpleField>
</Schema>
<Folder><name>route_440_dir0</name>
  <Placemark>
	<Style><LineStyle><color>ff0000ff</color></LineStyle><PolyStyle><fill>0</fill></PolyStyle></Style>
	<ExtendedData><SchemaData schemaUrl="#route_440_dir0">
		<SimpleData name="route_id">440</SimpleData>
		<SimpleData name="direction_id">0</SimpleData>
		<SimpleData name="shape_id">798</SimpleData>
	</SchemaData></ExtendedData>
      <LineString><coordinates>-5.63121,43.3691 -5.63121,43.3691 -5.63121,43.3691 -5.63158,43.369 -5.63166,43.36897 -5.63213,43.36898 -5.63249,43.36886 -5.6327,43.36887 -5.63299,43.36889 -5.6334,43.36885 -5.63419,43.36889 -5.63422,43.36889 -5.63437,43.36889 -5.63448,43.3689 -5.63509,43.36887 -5.63567,43.36895 -5.63584,43.36899 -5.63611,43.36911 -5.63657,43.36926 -5.63686,43.36941 -5.63707,43.3695 -5.63728,43.36953 -5.63743,43.3695 -5.63758,43.3694 -5.63771,43.36916 -5.63776,43.36906 -5.63799,43.36873 -5.63848,43.36822 -5.63857,43.36796 -5.63861,43.3679 -5.63861,43.3679 -5.63873,43.36773 -5.63893,43.36762 -5.63929,43.36758 -5.63943,43.36746 -5.63964,43.36723 -5.63966,43.36723 -5.63985,43.36714 -5.64011,43.36703 -5.64045,43.36681 -5.64073,43.3667 -5.64098,43.36658 -5.64147,43.36617 -5.64181,43.36587 -5.64217,43.36562 -5.64232,43.36549 -5.64243,43.36526 -5.64243,43.36516 -5.64245,43.36492 -5.64258,43.36444 -5.64279,43.36414 -5.64295,43.36394 -5.64318,43.36382 -5.64333,43.3638 -5.64343,43.36378 -5.64431,43.36382 -5.64481,43.36382 -5.64502,43.36375 -5.64532,43.36359 -5.64564,43.36349 -5.64629,43.36329 -5.64653,43.36323 -5.64706,43.36316 -5.64743,43.36317 -5.64783,43.36317 -5.64802,43.36308 -5.64824,43.363 -5.64952,43.36297 -5.64958,43.36298 -5.64991,43.363 -5.65002,43.36301 -5.65011,43.36312 -5.65032,43.36324 -5.65049,43.3633 -5.65105,43.36335 -5.65109,43.36335 -5.65109,43.36335 -5.65122,43.36334 -5.65176,43.36324 -5.65231,43.36318 -5.6522,43.36329 -5.65185,43.36366 -5.65176,43.36372 -5.65102,43.36411 -5.65093,43.36418 -5.65085,43.36425 -5.65082,43.36432 -5.65083,43.36444 -5.65086,43.36454 -5.65096,43.36462 -5.65109,43.36465 -5.65171,43.36466 -5.65202,43.36469 -5.65219,43.36473 -5.65269,43.36487 -5.65286,43.36491 -5.65308,43.36492 -5.65333,43.36488 -5.65348,43.36485 -5.65348,43.36485 -5.65398,43.36476 -5.65411,43.36474 -5.65424,43.36475 -5.65439,43.36476 -5.65492,43.36486 -5.65507,43.36487 -5.65514,43.36485 -5.65504,43.36475 -5.65485,43.36449 -5.65477,43.36436 -5.65466,43.36388 -5.65467,43.36379 -5.65471,43.36372 -5.65478,43.36368 -5.65491,43.36364 -5.65516,43.3636 -5.65541,43.36356 -5.65563,43.36354 -5.65609,43.36351 -5.65626,43.36351 -5.65643,43.36353 -5.65745,43.36365 -5.6583,43.36377 -5.65852,43.36381 -5.65892,43.36391 -5.65911,43.36398 -5.65925,43.36404 -5.66023,43.36458 -5.66069,43.36479 -5.66105,43.36484 -5.66119,43.36486 -5.66142,43.36487 -5.66163,43.36484 -5.66163,43.36484 -5.66142,43.36487 -5.66119,43.36486 -5.66105,43.36484 -5.66069,43.36479 -5.66023,43.36458 -5.65925,43.36404 -5.65911,43.36398 -5.65892,43.36391 -5.65852,43.36381 -5.6583,43.36377 -5.65745,43.36365 -5.65643,43.36353 -5.65626,43.36351 -5.65609,43.36351 -5.65563,43.36354 -5.65541,43.36356 -5.65516,43.3636 -5.65491,43.36364 -5.65478,43.36368 -5.65471,43.36372 -5.65467,43.36379 -5.65466,43.36388 -5.65477,43.36436 -5.65485,43.36449 -5.65504,43.36475 -5.65514,43.36485 -5.65517,43.36488 -5.65543,43.3651 -5.65553,43.36516 -5.65572,43.36525 -5.65572,43.36525 -5.65587,43.36531 -5.65603,43.36542 -5.65614,43.36552 -5.65657,43.36616 -5.6566,43.36624 -5.65662,43.36633 -5.6566,43.36646 -5.65633,43.36701 -5.65624,43.3672 -5.65608,43.36751 -5.656,43.36761 -5.65592,43.36766 -5.65579,43.3677 -5.65569,43.36772 -5.65483,43.36774 -5.6547,43.36777 -5.65461,43.36781 -5.65452,43.36786 -5.65439,43.36795 -5.65422,43.36809 -5.65422,43.36809 -5.65359,43.3686 -5.65351,43.36869 -5.65348,43.36876 -5.65347,43.36885 -5.6535,43.36895 -5.65355,43.36901 -5.65364,43.36907 -5.65442,43.36944 -5.65481,43.36962 -5.65489,43.36968 -5.65493,43.36976 -5.65494,43.36985 -5.6549,43.36991 -5.65481,43.36999 -5.65319,43.37096 -5.65306,43.37106 -5.653,43.37115 -5.653,43.37124 -5.65303,43.37132 -5.65311,43.37143 -5.65356,43.37182 -5.65359,43.37186 -5.6536,43.37186 -5.6536,43.37186 -5.65368,43.37194 -5.65376,43.37204 -5.6538,43.37214 -5.65381,43.37223 -5.6538,43.37237 -5.65379,43.37239 -5.65378,43.37243 -5.65376,43.3725 -5.65335,43.37358 -5.65317,43.37407 -5.65274,43.37521 -5.65239,43.3762 -5.65216,43.37681 -5.65185,43.37765 -5.65185,43.37765 -5.65184,43.37766 -5.65155,43.37845 -5.65122,43.37933 -5.65118,43.37944 -5.65105,43.3798 -5.65073,43.38064 -5.65071,43.38077 -5.65072,43.38085 -5.65079,43.38095 -5.65089,43.38101 -5.65099,43.38103 -5.65106,43.38104 -5.65114,43.38103 -5.65144,43.38097 -5.65196,43.38086 -5.65256,43.38072 -5.65315,43.38058 -5.65327,43.38057 -5.65336,43.38057 -5.65347,43.3806 -5.65353,43.38066 -5.65355,43.38073 -5.65353,43.38081 -5.65331,43.381 -5.65291,43.38133 -5.65252,43.38166 -5.65226,43.38189 -5.65217,43.38198 -5.65211,43.3821 -5.65205,43.38228 -5.65201,43.38253 -5.65197,43.38272 -5.65197,43.38272 -5.65195,43.38283 -5.6519,43.38306 -5.6519,43.38324 -5.65193,43.38333 -5.652,43.38342 -5.65221,43.38364 -5.65225,43.38372 -5.65226,43.38385 -5.65224,43.38401 -5.65225,43.38414 -5.65232,43.38424 -5.65239,43.38432 -5.65256,43.3844 -5.65295,43.38446 -5.65385,43.38461 -5.65477,43.38472 -5.65677,43.38478 -5.65716,43.38479 -5.65778,43.38481 -5.65792,43.38481 -5.65877,43.38479 -5.65933,43.38478 -5.6595,43.38477 -5.66118,43.38473 -5.66135,43.38473 -5.66148,43.38473 -5.6616,43.38474 -5.66171,43.38474 -5.66177,43.38475 -5.6618,43.38476 -5.66183,43.38477 -5.66183,43.38482 -5.66185,43.38486 -5.66188,43.3849 -5.66193,43.38494 -5.66199,43.38496 -5.66205,43.38497 -5.66206,43.38501 -5.66207,43.38506 -5.66216,43.38525 -5.66224,43.38542 -5.66227,43.38547 -5.66229,43.38551 -5.66231,43.38556 -5.66246,43.38586 -5.66246,43.38586 -5.66271,43.38637 -5.66297,43.38691 -5.66299,43.38696 -5.66299,43.38703 -5.66297,43.3872 -5.66296,43.38726 -5.66294,43.38737 -5.66292,43.38746 -5.66291,43.38754 -5.66287,43.38787 -5.66282,43.38817 -5.66282,43.38819 -5.66277,43.38856 -5.66273,43.38881 -5.66272,43.38888 -5.66271,43.38896 -5.66267,43.38897 -5.66264,43.38898 -5.66262,43.38901 -5.66261,43.38904 -5.66262,43.38907 -5.66264,43.3891 -5.66267,43.38911 -5.66271,43.38911 -5.6627,43.38916 -5.66269,43.3892 -5.66249,43.39035 -5.66247,43.39045 -5.66238,43.39046 -5.6623,43.39048 -5.66221,43.39058 -5.66219,43.39067 -5.66218,43.39074 -5.66219,43.39083 -5.66226,43.39088 -5.66231,43.39091 -5.66237,43.39091 -5.66237,43.39095 -5.66237,43.39103 -5.66231,43.39131 -5.6623,43.3914 -5.6623,43.3914 -5.66224,43.39172 -5.66322,43.3918 -5.66413,43.39186 -5.66429,43.39187 -5.66452,43.39192 -5.66528,43.39209 -5.66554,43.39214 -5.6657,43.39218 -5.66569,43.3922 -5.6657,43.39226 -5.66573,43.39231 -5.66578,43.39235 -5.66584,43.39238 -5.6659,43.39239 -5.66598,43.39238 -5.66605,43.39236 -5.66611,43.39232 -5.66614,43.39227 -5.66615,43.39222 -5.66613,43.39216 -5.66609,43.39211 -5.66603,43.39207 -5.66597,43.39206 -5.66588,43.39206 -5.66581,43.39207 -5.66576,43.3921 -5.66572,43.392 -5.6657,43.39193 -5.66555,43.39189 -5.66546,43.39186 -5.66532,43.39152</coordinates></LineString>
  </Placemark>
</Folder>
</Document></kml>
