<?xml version="1.0" encoding="utf-8" ?>
<kml xmlns="http://www.opengis.net/kml/2.2">
<Document id="root_doc">
<Schema name="route_440_dir1" id="route_440_dir1">
	<SimpleField name="route_id" type="string"></SimpleField>
	<SimpleField name="direction_id" type="string"></SimpleField>
	<SimpleField name="shape_id" type="string"></SimpleField>
</Schema>
<Folder><name>route_440_dir1</name>
  <Placemark>
	<Style><LineStyle><color>ff0000ff</color></LineStyle><PolyStyle><fill>0</fill></PolyStyle></Style>
	<ExtendedData><SchemaData schemaUrl="#route_440_dir1">
		<SimpleData name="route_id">440</SimpleData>
		<SimpleData name="direction_id">1</SimpleData>
		<SimpleData name="shape_id">799</SimpleData>
	</SchemaData></ExtendedData>
      <LineString><coordinates>-5.66533,43.39153 -5.66533,43.39153 -5.66533,43.39153 -5.66532,43.39152 -5.66542,43.39145 -5.66548,43.3914 -5.66544,43.3913 -5.66544,43.3913 -5.66535,43.39112 -5.66545,43.39106 -5.66554,43.39098 -5.66566,43.39085 -5.66568,43.39082 -5.66573,43.39072 -5.66577,43.39063 -5.66583,43.39046 -5.66584,43.39028 -5.66577,43.39003 -5.6657,43.38978 -5.66571,43.38965 -5.66584,43.38966 -5.66653,43.3897 -5.66666,43.38969 -5.66692,43.3897 -5.66711,43.3897 -5.66741,43.38972 -5.66751,43.38973 -5.66761,43.38972 -5.66771,43.38968 -5.66779,43.38962 -5.66784,43.38955 -5.66786,43.38945 -5.66784,43.3894 -5.66782,43.38938 -5.66779,43.38933 -5.66772,43.38928 -5.66768,43.38926 -5.66761,43.38924 -5.66753,43.38923 -5.66745,43.38923 -5.66738,43.38924 -5.6673,43.38927 -5.66724,43.38932 -5.66719,43.38937 -5.66716,43.38943 -5.66704,43.38954 -5.6668,43.38964 -5.66666,43.38969 -5.66653,43.3897 -5.66584,43.38966 -5.66571,43.38965 -5.66547,43.38964 -5.66527,43.38964 -5.66483,43.38968 -5.66483,43.38968 -5.66479,43.38968 -5.66454,43.38972 -5.6643,43.38978 -5.66388,43.38992 -5.66341,43.39014 -5.66279,43.39048 -5.66263,43.39057 -5.66257,43.3905 -5.66253,43.39048 -5.66247,43.39045 -5.66249,43.39035 -5.66269,43.3892 -5.6627,43.38916 -5.66271,43.38911 -5.66275,43.38911 -5.6628,43.38909 -5.66281,43.38908 -5.66282,43.38906 -5.66283,43.38904 -5.66282,43.38902 -5.66281,43.389 -5.66279,43.38898 -5.66275,43.38896 -5.66271,43.38896 -5.66272,43.38888 -5.66273,43.38881 -5.66277,43.38856 -5.66279,43.38841 -5.66279,43.38841 -5.66282,43.38819 -5.66282,43.38817 -5.66287,43.38787 -5.66291,43.38754 -5.66292,43.38746 -5.66294,43.38737 -5.66296,43.38726 -5.66297,43.3872 -5.66299,43.38703 -5.66299,43.38696 -5.66297,43.38691 -5.66271,43.38637 -5.66246,43.38586 -5.66231,43.38556 -5.66229,43.38551 -5.66227,43.38547 -5.66224,43.38542 -5.66216,43.38525 -5.66207,43.38506 -5.66206,43.38501 -5.66205,43.38497 -5.66213,43.38496 -5.6622,43.38493 -5.66225,43.38489 -5.66228,43.38485 -5.66229,43.3848 -5.66228,43.38476 -5.66226,43.38472 -5.66222,43.38468 -5.66217,43.38465 -5.66212,43.38464 -5.66206,43.38463 -5.662,43.38464 -5.66194,43.38465 -5.66189,43.38468 -5.66186,43.38472 -5.66184,43.38474 -5.66183,43.38477 -5.6618,43.38476 -5.66177,43.38475 -5.66171,43.38474 -5.6616,43.38474 -5.66148,43.38473 -5.66135,43.38473 -5.66118,43.38473 -5.6595,43.38477 -5.65933,43.38478 -5.65877,43.38479 -5.65792,43.38481 -5.65792,43.38481 -5.65778,43.38481 -5.65716,43.38479 -5.65677,43.38478 -5.65477,43.38472 -5.65385,43.38461 -5.65295,43.38446 -5.65256,43.3844 -5.65239,43.38432 -5.65232,43.38424 -5.65225,43.38414 -5.65224,43.38401 -5.65226,43.38385 -5.65225,43.38372 -5.65221,43.38364 -5.652,43.38342 -5.65193,43.38333 -5.6519,43.38324 -5.6519,43.38306 -5.65195,43.38283 -5.65201,43.38253 -5.65205,43.38228 -5.65211,43.3821 -5.65217,43.38198 -5.65226,43.38189 -5.65252,43.38166 -5.65291,43.38133 -5.65331,43.381 -5.65353,43.38081 -5.65355,43.38073 -5.65353,43.38066 -5.65347,43.3806 -5.65336,43.38057 -5.65327,43.38057 -5.65315,43.38058 -5.65256,43.38072 -5.65196,43.38086 -5.65144,43.38097 -5.65114,43.38103 -5.65106,43.38104 -5.65099,43.38103 -5.64999,43.38127 -5.64954,43.38143 -5.64874,43.38166 -5.64628,43.38221 -5.64577,43.38232 -5.64383,43.38253 -5.64227,43.38298 -5.64176,43.3831 -5.64132,43.38314 -5.64104,43.38314 -5.64087,43.38304 -5.64059,43.38288 -5.64037,43.38277 -5.6401,43.38268 -5.63986,43.38263 -5.63946,43.38276 -5.63936,43.38276 -5.63916,43.38275 -5.63847,43.38264 -5.63811,43.38257 -5.63809,43.38255 -5.6375,43.38178 -5.63663,43.38144 -5.63611,43.38105 -5.63617,43.38089 -5.6362,43.38071 -5.63622,43.38036 -5.63624,43.38031 -5.63675,43.38033 -5.63713,43.38034 -5.63724,43.38033 -5.63778,43.38007 -5.63788,43.38 -5.63803,43.3797 -5.63826,43.37934 -5.63833,43.37926 -5.63833,43.37926 -5.63859,43.37896 -5.63862,43.37879 -5.63862,43.3786 -5.6387,43.37844 -5.6387,43.37839 -5.6387,43.37831 -5.6387,43.37829 -5.63872,43.37821 -5.63873,43.37819 -5.63903,43.37796 -5.63915,43.37788 -5.63942,43.3778 -5.63959,43.37774 -5.6397,43.37766 -5.63979,43.37758 -5.63983,43.37754 -5.63991,43.37748 -5.63997,43.37742 -5.64012,43.3773 -5.64031,43.37732 -5.64042,43.37733 -5.64059,43.37731 -5.64077,43.37731 -5.64092,43.37731 -5.64119,43.37731 -5.64156,43.37728 -5.64213,43.37724 -5.64282,43.3773 -5.6429,43.37733 -5.64299,43.37735 -5.64334,43.37754 -5.64347,43.37761 -5.64398,43.37769 -5.64432,43.3777 -5.64477,43.3777 -5.64487,43.37774 -5.6453,43.37786 -5.64564,43.37791 -5.64594,43.37799 -5.64594,43.37799 -5.64627,43.37802 -5.64657,43.37802 -5.64703,43.37809 -5.64722,43.37814 -5.64764,43.37819 -5.64776,43.37823 -5.64803,43.37826 -5.64877,43.37827 -5.64895,43.37829 -5.64917,43.37841 -5.64929,43.37845 -5.64945,43.37848 -5.6496,43.3785 -5.64987,43.37847 -5.65,43.37846 -5.65013,43.37848 -5.65022,43.37853 -5.65078,43.37913 -5.65118,43.37944 -5.65122,43.37933 -5.65155,43.37845 -5.65163,43.37823 -5.65163,43.37823 -5.65184,43.37766 -5.65216,43.37681 -5.65239,43.3762 -5.65274,43.37521 -5.65317,43.37407 -5.65335,43.37358 -5.65376,43.3725 -5.65378,43.37243 -5.65379,43.37239 -5.6538,43.37237 -5.65381,43.37223 -5.6538,43.37214 -5.65376,43.37204 -5.65368,43.37194 -5.65356,43.37182 -5.65311,43.37143 -5.65303,43.37132 -5.653,43.37124 -5.653,43.37115 -5.65306,43.37106 -5.65319,43.37096 -5.65355,43.37075 -5.65355,43.37075 -5.65481,43.36999 -5.6549,43.36991 -5.65494,43.36985 -5.65493,43.36976 -5.65489,43.36968 -5.65481,43.36962 -5.65442,43.36944 -5.65364,43.36907 -5.65355,43.36901 -5.6535,43.36895 -5.65347,43.36885 -5.65348,43.36876 -5.65351,43.36869 -5.65359,43.3686 -5.65439,43.36795 -5.65452,43.36786 -5.65461,43.36781 -5.6547,43.36777 -5.65483,43.36774 -5.65569,43.36772 -5.65579,43.3677 -5.65592,43.36766 -5.656,43.36761 -5.65608,43.36751 -5.65624,43.3672 -5.65633,43.36701 -5.6566,43.36646 -5.65662,43.36633 -5.6566,43.36624 -5.65657,43.36616 -5.65614,43.36552 -5.65603,43.36542 -5.65587,43.36531 -5.65553,43.36516 -5.65543,43.3651 -5.65517,43.36488 -5.65514,43.36485 -5.65507,43.36487 -5.65492,43.36486 -5.65439,43.36476 -5.65424,43.36475 -5.65411,43.36474 -5.65398,43.36476 -5.65333,43.36488 -5.65308,43.36492 -5.65286,43.36491 -5.65269,43.36487 -5.65219,43.36473 -5.65202,43.36469 -5.65171,43.36466 -5.65163,43.36466 -5.65163,43.36466 -5.65109,43.36465 -5.65096,43.36462 -5.65086,43.36454 -5.65083,43.36444 -5.65082,43.36432 -5.65085,43.36425 -5.65093,43.36418 -5.65102,43.36411 -5.65176,43.36372 -5.65185,43.36366 -5.6522,43.36329 -5.65231,43.36318 -5.65176,43.36324 -5.65122,43.36334 -5.65105,43.36335 -5.65049,43.3633 -5.65032,43.36324 -5.65011,43.36312 -5.65002,43.36301 -5.64991,43.363 -5.64958,43.36298 -5.64952,43.36297 -5.64824,43.363 -5.64802,43.36308 -5.64783,43.36317 -5.64743,43.36317 -5.64706,43.36316 -5.64653,43.36323 -5.64629,43.36329 -5.64564,43.36349 -5.64532,43.36359 -5.64502,43.36375 -5.64481,43.36382 -5.64431,43.36382 -5.64343,43.36378 -5.64333,43.3638 -5.64318,43.36382 -5.64295,43.36394 -5.64279,43.36414 -5.64268,43.36429 -5.64268,43.36429 -5.64258,43.36444 -5.64245,43.36492 -5.64243,43.36516 -5.64243,43.36526 -5.64232,43.36549 -5.64217,43.36562 -5.64181,43.36587 -5.64147,43.36617 -5.64098,43.36658 -5.64073,43.3667 -5.64045,43.36681 -5.64011,43.36703 -5.63985,43.36714 -5.63966,43.36723 -5.63964,43.36723 -5.63943,43.36746 -5.63929,43.36758 -5.63893,43.36762 -5.63873,43.36773 -5.63857,43.36796 -5.63848,43.36822 -5.63799,43.36873 -5.63776,43.36906 -5.63771,43.36916 -5.63771,43.36916 -5.63758,43.3694 -5.63743,43.3695 -5.63728,43.36953 -5.63707,43.3695 -5.63686,43.36941 -5.63657,43.36926 -5.63611,43.36911 -5.63584,43.36899 -5.63567,43.36895 -5.63509,43.36887 -5.63448,43.3689 -5.63437,43.36889 -5.63422,43.36889 -5.63419,43.36889 -5.6334,43.36885 -5.63299,43.36889 -5.6327,43.36887 -5.63249,43.36886 -5.63213,43.36898 -5.63166,43.36897 -5.63158,43.369 -5.63121,43.3691</coordinates></LineString>
  </Placemark>
</Folder>
</Document></kml>
