{
  "type": "FeatureCollection",
  "features": [
    {
      "type": "Feature",
      "geometry": {
        "type": "Point",
        "coordinates": [
          -5.0,
          43.0
        ]
      },
      "properties": {
        "stop_id": "s1",
        "stop_name": "Stop 1",
        "stop_lat": "43.0",
        "stop_lon": "-5.0"
      }
    },
    {
      "type": "Feature",
      "geometry": {
        "type": "Point",
        "coordinates": [
          -5.1,
          43.1
        ]
      },
      "properties": {
        "stop_id": "s2",
        "stop_name": "Stop 2",
        "stop_lat": "43.1",
        "stop_lon": "-5.1"
      }
    }
  ]
}
